BATSU-CS1 (IRAZU)       
1 43468U 98067NR  20064.05831928  .04860327  12102-4  10158-2 0  9990
2 43468  51.6208  66.1430 0002240 149.8670 210.2481 16.30203714203978
CUBERRT                 
1 43546U 98067NU  20086.93575008  .00013047  00000-0  10883-3 0  9993
2 43546  51.6363 343.9481 0004356 126.3697 233.7703 15.70453711 97265
TEMPEST-D               
1 43547U 98067NV  20087.00925995  .00011533  00000-0  13901-3 0  9999
2 43547  51.6384   7.7783 0005918 102.7938 257.3718 15.61281977 96631
RAINCUBE                
1 43548U 98067NW  20087.33651345  .00025540  00000-0  21105-3 0  9999
2 43548  51.6349 350.3514 0005370 131.1000 229.0462 15.70111872 97347
HALOSAT                 
1 43549U 98067NX  20086.98879154  .00025280  00000-0  21317-3 0  9996
2 43549  51.6372 352.5849 0004902 129.4823 230.6609 15.69630193 96847
ENDUROSAT ONE           
1 43551U 98067NZ  20086.84845237  .00035356  00000-0  24116-3 0  9994
2 43551  51.6344 345.5747 0005583 144.4779 215.6593 15.74472626 97332
EQUISAT                 
1 43552U 98067PA  20086.73271126  .00020755  00000-0  17188-3 0  9991
2 43552  51.6374 352.4143 0005905 135.6644 224.4827 15.70198239 97197
AEROCUBE 12A            
1 43556U 18046C   20086.46685683  .00000632  00000-0  34213-4 0  9992
2 43556  51.6418 144.2282 0008295   2.1366 357.9648 15.29532293 94674
AEROCUBE 12B            
1 43557U 18046D   20086.64392513  .00001156  00000-0  52571-4 0  9999
2 43557  51.6416 143.9016 0008283   2.5551 357.5470 15.29287869 94643
UITMSAT-1               
1 43589U 98067PD  20086.80923795  .00030249  00000-0  23180-3 0  9993
2 43589  51.6344 351.2757 0005439 144.0340 216.1025 15.71820799 92952
MAYA-1                  
1 43590U 98067PE  20086.92939393  .00030699  00000-0  23506-3 0  9990
2 43590  51.6345 350.5870 0005478 144.8757 215.2603 15.71831618 92905
BHUTAN-1                
1 43591U 98067PF  20087.09879052  .00029271  00000-0  22344-3 0  9998
2 43591  51.6355 349.5226 0005558 146.1424 213.9930 15.71931025 92939
SIRIUSSAT-1             
1 43595U 98067PG  20086.97489430  .00026243  00000-0  21662-3 0  9993
2 43595  51.6348 353.9083 0003725 117.1150 243.0227 15.70129941 92043
SIRIUSSAT-2             
1 43596U 98067PH  20087.22204605  .00025473  00000-0  21122-3 0  9997
2 43596  51.6352 353.3757 0004072 115.2060 244.9360 15.70036956 92070
TANUSHA-3               
1 43597U 98067PJ  20087.30658029  .00045418  00000-0  28737-3 0  9990
2 43597  51.6319 344.7694 0003895 141.8036 218.3240 15.76092764 92198
SURFSAT                 
1 43614U 18070B   20087.34675589  .00002401  00000-0  62728-4 0  9994
2 43614  93.0241 120.6573 0012740 299.9716  60.0273 15.38789423 85854
CP7 (DAVE)              
1 43615U 18070C   20086.59054727  .00002099  00000-0  55081-4 0  9993
2 43615  93.0245 120.3395 0012976 302.7915  57.2089 15.38662023 85739
ELFIN-B                 
1 43616U 18070D   20087.34860957  .00003590  00000-0  90561-4 0  9997
2 43616  93.0205 120.5731 0013388 301.7766  58.2184 15.39828362 85887
ELFIN-A                 
1 43617U 18070E   20086.80598285  .00003634  00000-0  91248-4 0  9992
2 43617  93.0260 120.7917 0012689 300.6369  59.3634 15.39975393 85808
CUBEBEL-1 (BSUSAT-1)    
1 43666U 18083E   20087.38349633  .00000979  00000-0  51287-4 0  9993
2 43666  97.4968 114.6303 0013300 288.1475 199.3773 15.18098493 78169
DEBRISSAT-2             
1 43680U 98067PR  20086.85048996  .00101559  00000-0  43859-3 0  9999
2 43680  51.6338 340.9823 0004461 170.5482 189.5606 15.84135264100937
CICERO 10               
1 43690U 18088A   20087.34191006  .00000828  00000-0  36447-4 0  9994
2 43690  85.0367 132.4324 0012671 247.8125 112.1772 15.20100850 76262
IRVINE01                
1 43693U 18088D   20086.55703165  .00001842  00000-0  77560-4 0  9992
2 43693  85.0338 131.8813 0015959 230.6739 129.3089 15.22505708 76233
PROXIMA I               
1 43694U 18088E   20087.16451776  .00000849  00000-0  35451-4 0  9998
2 43694  85.0308 131.2870 0017657 220.5697 139.4230 15.21830671 76325
PROXIMA II              
1 43696U 18088G   20086.70259266  .00000813  00000-0  33869-4 0  9991
2 43696  85.0310 131.5953 0017648 222.3688 137.6192 15.21832526 76255
FACSAT-1                
1 43721U 18096C   20087.43597674  .00001460  00000-0  57647-4 0  9997
2 43721  97.4266 161.4415 0018993  56.0035 304.3005 15.27001067 73873
CENTAURI-2              
1 43722U 18096D   20086.83306879  .00001864  00000-0  71845-4 0  9990
2 43722  97.4275 161.0433 0019033  58.1311 302.1777 15.27450122 73788
INNOSAT-2               
1 43738U 18096V   20086.99579059  .00002578  00000-0  90885-4 0  9994
2 43738  97.4285 162.8406 0025050  64.5581 295.8247 15.29915697 73922
SIRION PATHFINDER-2     
1 43759U 18099B   20087.46807111  .00000268  00000-0  29511-4 0  9998
2 43759  97.7116 160.5014 0015808  97.1106 263.1913 14.95241181 71676
CORVUS-BC 4             
1 43767U 18099K   20086.84325622 -.00000166  00000-0 -10015-4 0  9998
2 43767  97.7102 159.3868 0013292 101.9247 258.3464 14.94684645 71568
MOVE-II                 
1 43780U 18099Y   20086.75065567  .00000860  00000-0  83056-4 0  9996
2 43780  97.7125 159.7067 0015220 109.8882 250.3980 14.95316678 71551
SPACEBEE-7              
1 43816U 18099BL  20086.84032455  .00000026  00000-0  75163-5 0  9991
2 43816  97.7138 160.1353 0014981  95.1658 265.1273 14.95624466 71141
SPACEBEE-5              
1 43817U 18099BM  20087.42697001  .00001312  00000-0  12150-3 0  9995
2 43817  97.7183 161.0372 0014971  94.7715 265.5216 14.96143807 71249
SPACEBEE-6              
1 43818U 18099BN  20086.74673134  .00000976  00000-0  92472-4 0  9992
2 43818  97.7149 160.1444 0015029  96.2853 264.0080 14.95785764 71287
SHIELDS 1               
1 43850U 18104B   20086.58886601  .00000041  00000-0  00000-0 0  9997
2 43850  85.0307 230.1040 0015806  23.6824 336.5151 15.21311236 70871
STF-1                   
1 43852U 18104D   20087.38337637  .00000041  00000-0  00000+0 0  9997
2 43852  85.0302 230.0602 0015895  34.4105 325.8253 15.21111435 70975
ZACUBE-2                
1 43907U 18111AH  20087.01431828  .00000544  00000-0  24802-4 0  9992
2 43907  97.2729 349.2299 0023286  75.9178 284.4645 15.24497493 69452
LUME 1                  
1 43908U 18111AJ  20086.82957047  .00001041  00000-0  44407-4 0  9993
2 43908  97.2730 349.1699 0023096  76.2330 284.1477 15.24868290 69436
AOBA VELOX-IV           
1 43940U 19003J   20087.09898887  .00001840  00000-0  76609-4 0  9992
2 43940  97.2385 141.1729 0025118 151.2242 263.5868 15.24703326 66109
CATSAT-2                
1 44029U 98067PV  20087.01658202  .00017141  00000-0  19332-3 0  9995
2 44029  51.6402  13.1239 0004904 127.1234 233.0208 15.62620753 65629
DELPHINI                
1 44030U 98067PW  20087.20647351  .00018028  00000-0  19750-3 0  9990
2 44030  51.6369  11.3153 0005059 125.6034 234.5432 15.63328827 65635
UNITE                   
1 44031U 98067PX  20086.83104638  .00009499  00000-0  12239-3 0  9992
2 44031  51.6391  17.8515 0003999 117.4061 242.7340 15.59775307 65514
TECHEDSAT 8             
1 44032U 98067PY  20087.44737626  .00238511  31976-4  76834-3 0  9990
2 44032  51.6274 347.9722 0006577 181.0860 179.0133 15.90435756 65946
CATSAT-1                
1 44033U 98067PZ  20087.33627117  .00020948  00000-0  23471-3 0  9994
2 44033  51.6403  11.5140 0004749 125.4922 234.6516 15.62636564 65581
RAAVANA-1               
1 44329U 98067QE  20086.85337166  .00010901  00000-0  15879-3 0  9991
2 44329  51.6408  27.7896 0007064  59.6642 300.5048 15.56266147 44131
UGUISU                  
1 44330U 98067QF  20086.86200376  .00010442  00000-0  15276-3 0  9997
2 44330  51.6406  27.8441 0007072  58.2636 301.9044 15.56201510 44117
NEPALISAT-1             
1 44331U 98067QG  20086.84728640  .00011375  00000-0  16520-3 0  9994
2 44331  51.6407  27.7484 0007095  60.9391 299.2311 15.56296252 44122
SPOOQY-1                
1 44332U 98067QH  20087.03919298  .00010823  00000-0  15788-3 0  9990
2 44332  51.6407  26.7771 0006069  64.3132 295.8486 15.56242010 44119
SPACEBEE-9              
1 44370U 19037F   20086.66450265  .00009781  00000-0  23028-3 0  9991
2 44370  45.0108 218.2487 0012050  53.6473 306.5491 15.42207558 41817
SPACEBEE-8              
1 44371U 19037G   20086.80404918  .00016977  00000-0  35505-3 0  9990
2 44371  45.0131 214.2349 0009219  54.9761 305.1990 15.45279671 41866
IOD-1 GEMS              
1 44385U 98067QK  20087.44864972  .00016903  00000-0  22980-3 0  9998
2 44385  51.6419  24.2998 0002985  42.8955 317.2270 15.57707725 41691
MOVE-IIB                
1 44398U 19038N   20087.43679985  .00001327  00000-0  80155-4 0  9993
2 44398  97.5276  49.7683 0026781  52.2581 308.1071 15.12137135 40182
SONATE                  
1 44400U 19038Q   20087.45381327  .00000553  00000-0  35885-4 0  9999
2 44400  97.5307  49.8041 0026620  50.7736 309.5851 15.11871966 40184
LUCKY-7                 
1 44406U 19038W   20087.41717339  .00000689  00000-0  43503-4 0  9993
2 44406  97.5303  49.8447 0026043  50.6505 309.7027 15.12114716 40178
BEESAT 9                
1 44412U 19038AC  20086.88983928  .00000953  00000-0  58717-4 0  9996
2 44412  97.5295  49.3068 0024291  57.9987 302.3600 15.12156691 39796
JAISAT-1                
1 44419U 19038F   20087.46568227  .00000922  00000-0  56189-4 0  9996
2 44419  97.5298  50.0767 0023120  55.7258 304.6158 15.12640700 40208
SWIATOWID               
1 44426U 98067QL  20087.45335829  .00019274  00000-0  25678-3 0  9990
2 44426  51.6430  24.1014 0003823  41.9977  62.4907 15.58145989 41712
KRAKSAT                 
1 44427U 98067QM  20086.83731727  .00008261  00000-0  12891-3 0  9996
2 44427  51.6423  29.9590 0003732  22.7240 337.3915 15.54764065 41627
VCC A                   
1 44428U 98067QN  20087.00706295  .00009335  00000-0  13982-3 0  9994
2 44428  51.6426  28.0972 0003355  46.1212 314.0056 15.55719220 41661
